GLOBALSTAR M001         
1 25162U 98008A   25183.60200610 -.00000079  00000+0  13633-3 0  9990
2 25162  52.0041 288.3591 0000941 267.2293 106.0264 12.38214106245627
GLOBALSTAR M004         
1 25163U 98008B   25183.28815720 -.00000091  00000+0  74712-4 0  9999
2 25163  52.0020   8.0824 0002709 340.3592 191.1541 12.63397642263594
GLOBALSTAR M002         
1 25164U 98008C   25183.31139789 -.00000063  00000+0  25690-3 0  9997
2 25164  51.9976 202.2832 0001529 187.1177 172.9622 11.61510468185821
GLOBALSTAR M003         
1 25165U 98008D   25183.56577962 -.00000117  00000+0 -29362-3 0  9995
2 25165  51.9973 125.9318 0008249 327.3197 204.0538 12.12073042235081
GLOBALSTAR M014         
1 25306U 98023A   25183.58747002 -.00000057  00000+0  37530-3 0  9993
2 25306  51.9825 124.4901 0001470  21.2500 150.2792 11.65481487192969
GLOBALSTAR M006         
1 25307U 98023B   25183.30734162 -.00000068  00000+0  15690-3 0  9992
2 25307  51.9902 178.2368 0002881 134.7587 238.8356 11.58176613218582
GLOBALSTAR M015         
1 25308U 98023C   25183.52616473 -.00000074  00000+0 -17902-4 0  9998
2 25308  51.9827 276.8680 0012832 104.4943 273.2954 11.48860219195849
GLOBALSTAR M008         
1 25309U 98023D   25183.62297978 -.00000098  00000+0 -16030-4 0  9992
2 25309  51.9945 153.3012 0002372 211.3253 321.4036 12.36070736239750
